STARLINK-37818          
1 69333U 26122E   26175.25002315 -.00023254  00000+0 -42693-3 0  9990
2 69333  97.2853 204.9206 0000641  50.9935 227.5888 15.49204943  4482
STARLINK-37868          
1 69334U 26122F   26175.25002315 -.02428357  00000+0 -44541-1 0  9998
2 69334  97.2853 205.0011 0002206  74.5291  22.6299 15.53097672  4489
STARLINK-37877          
1 69335U 26122G   26175.25002315 -.00022813  00000+0 -41907-3 0  9999
2 69335  97.2853 204.8627 0001391  88.7966  54.0664 15.49183944  4488
STARLINK-37791          
1 69336U 26122H   26175.25002315 -.00018204  00000+0 -33364-3 0  9997
2 69336  97.2852 204.9415 0001901  82.0863 246.4817 15.49203028  4487
STARLINK-37765          
1 69337U 26122J   26175.25002315 -.02627545  00000+0 -44371-1 0  9992
2 69337  97.2849 205.0503 0001907  81.7046 134.2774 15.55034252  4539
STARLINK-37788          
1 69338U 26122K   26175.25002315 -.00021354  00000+0 -39204-3 0  9998
2 69338  97.2855 204.8583 0000566  84.5541  47.5201 15.49189228  4485
STARLINK-37743          
1 69339U 26122L   26175.25002315 -.00019335  00000+0 -35482-3 0  9999
2 69339  97.2854 204.9295 0000815  99.7624 200.8867 15.49181991  4484
STARLINK-37780          
1 69340U 26122M   26175.25002315  .00002050  00000+0  39377-4 0  9993
2 69340  97.2850 204.9782 0001272  90.8352 321.9725 15.49166566  4536
STARLINK-37781          
1 69341U 26122N   26175.25002315 -.00022100  00000+0 -40585-3 0  9996
2 69341  97.2855 204.8548 0000899  95.0445  30.5375 15.49188415  4480
STARLINK-37782          
1 69342U 26122P   26175.25002315 -.00893787  00000+0 -17731-1 0  9999
2 69342  97.2853 205.0289 0001480  50.2550 117.5704 15.49743989  4486
STARLINK-37776          
1 69343U 26122Q   26175.25002315 -.00010113  00000+0 -18490-3 0  9999
2 69343  97.2852 205.0198 0000783 104.7372  45.9145 15.49130233  4482
STARLINK-37786          
1 69344U 26122R   26175.25002315 -.00017169  00000+0 -31472-3 0  9993
2 69344  97.2851 204.9462 0000940  88.4597 246.9920 15.49188109  4485
STARLINK-37785          
1 69345U 26122S   26175.25002315 -.00570357  00000+0 -11128-1 0  9991
2 69345  97.2852 205.0238 0000942  60.6515 100.0635 15.49538038  4487
STARLINK-37773          
1 69346U 26122T   26175.25002315 -.00010606  00000+0 -19364-3 0  9990
2 69346  97.2852 204.9747 0001597 114.7706 293.0106 15.49182693  4535
STARLINK-37744          
1 69347U 26122U   26175.25002315 -.00026955  00000+0 -49562-3 0  9998
2 69347  97.2852 204.8658 0000588 100.4759  47.7791 15.49191250  4482
STARLINK-37775          
1 69348U 26122V   26175.25002315  .00007098  00000+0  13211-3 0  9996
2 69348  97.2851 204.9788 0001473 102.7194 307.0744 15.49178450  4486
STARLINK-37777          
1 69349U 26122W   26175.25002315 -.00007600  00000+0 -13822-3 0  9996
2 69349  97.2849 204.9804 0000961  88.8497 326.4372 15.49187266  4481
STARLINK-37779          
1 69350U 26122X   26175.25002315 -.00003168  00000+0 -56659-4 0  9999
2 69350  97.2851 205.0160 0001299  76.8719  62.6569 15.49164681  4485
STARLINK-37549          
1 69351U 26122Y   26175.25002315 -.00038500  00000+0 -70846-3 0  9991
2 69351  97.2915 204.9204 0001948  86.1408 189.0930 15.49236166  4488
STARLINK-37778          
1 69352U 26122Z   26175.25002315 -.00021978  00000+0 -40359-3 0  9999
2 69352  97.2855 204.9391 0000960  93.9583 225.7194 15.49188607  4488
STARLINK-37651          
1 69353U 26123A   26175.18947122  .00201182  00000+0  99626-3 0  9993
2 69353  53.1570 206.7138 0001158  94.3049 265.8106 15.80938260  3148
STARLINK-37652          
1 69354U 26123B   26175.25382858  .00203607  00000+0  10074-2 0  9994
2 69354  53.1570 206.4051 0001068 111.2529 248.8608 15.80949968  3158
STARLINK-37593          
1 69355U 26123C   26175.25295787  .00208446  00000+0  10304-2 0  9991
2 69355  53.1568 206.3986 0001225 113.4225 246.6927 15.80954973  3156
STARLINK-37597          
1 69356U 26123D   26174.49299483 -.00516929  00000+0 -29588-2 0  9998
2 69356  53.1573 210.1918 0000870  36.4869 323.6212 15.79483202  3034
STARLINK-37598          
1 69357U 26123E   26175.24923202  .00162278  00000+0  80813-3 0  9997
2 69357  53.1573 206.3731 0001128 108.9634 251.1511 15.80932653  3158
STARLINK-37602          
1 69358U 26123F   26175.21685450  .00125073  00000+0  80728-3 0  9992
2 69358  53.1589 206.8965 0001272  88.1633 271.9533 15.75261138  3148
STARLINK-37600          
1 69359U 26123G   26175.27608393  .00121013  00000+0  78128-3 0  9991
2 69359  53.1582 206.5528 0001122 102.3439 257.7707 15.75270221  3150
STARLINK-37599          
1 69360U 26123H   26175.30206578  .00295731  00000+0  14402-2 0  9999
2 69360  53.1568 205.9863 0000772  91.4207 268.6905 15.81036331  3163
STARLINK-37039          
1 69361U 26123J   26175.25002315 -.00187812  00000+0 -12441-2 0  9990
2 69361  53.1595 206.4138 0001006 100.5265 242.3011 15.75317025  4299
STARLINK-37040          
1 69362U 26123K   26175.16127247  .00196370  00000+0  97317-3 0  9996
2 69362  53.1575 206.5226 0001107  97.4087 262.7062 15.80935715  3148
