OBJECT_NAME,OBJECT_ID,EPOCH,MEAN_MOTION,ECCENTRICITY,INCLINATION,RA_OF_ASC_NODE,ARG_OF_PERICENTER,MEAN_ANOMALY,EPHEMERIS_TYPE,CLASSIFICATION_TYPE,NORAD_CAT_ID,ELEMENT_SET_NO,REV_AT_EPOCH,BSTAR,MEAN_MOTION_DOT,MEAN_MOTION_DDOT
STARLINK-37818,2026-122E,2026-06-24T06:00:02.000160,15.49204943,.00006419,97.2853,204.9206,50.9935,227.5888,0,U,69333,999,448,-.42693441E-3,-.23254E-3,0
STARLINK-37868,2026-122F,2026-06-24T06:00:02.000160,15.53097672,.00022061,97.2853,205.0011,74.5291,22.6299,0,U,69334,999,448,-.44540687E-1,-.2428357E-1,0
STARLINK-37877,2026-122G,2026-06-24T06:00:02.000160,15.49183944,.0001391,97.2853,204.8627,88.7966,54.0664,0,U,69335,999,448,-.41907003E-3,-.22813E-3,0
STARLINK-37791,2026-122H,2026-06-24T06:00:02.000160,15.49203028,.00019013,97.2852,204.9415,82.0863,246.4817,0,U,69336,999,448,-.33363525E-3,-.18204E-3,0
STARLINK-37765,2026-122J,2026-06-24T06:00:02.000160,15.55034252,.00019077,97.2849,205.0503,81.7046,134.2774,0,U,69337,999,453,-.44371301E-1,-.2627545E-1,0
STARLINK-37788,2026-122K,2026-06-24T06:00:02.000160,15.49189228,.00005667,97.2855,204.8583,84.5541,47.5201,0,U,69338,999,448,-.39203988E-3,-.21354E-3,0
STARLINK-37743,2026-122L,2026-06-24T06:00:02.000160,15.49181991,.00008158,97.2854,204.9295,99.7624,200.8867,0,U,69339,999,448,-.35481969E-3,-.19335E-3,0
STARLINK-37780,2026-122M,2026-06-24T06:00:02.000160,15.49166566,.00012722,97.2850,204.9782,90.8352,321.9725,0,U,69340,999,453,.39377137E-4,.205E-4,0
STARLINK-37781,2026-122N,2026-06-24T06:00:02.000160,15.49188415,.00008991,97.2855,204.8548,95.0445,30.5375,0,U,69341,999,448,-.40584696E-3,-.221E-3,0
STARLINK-37782,2026-122P,2026-06-24T06:00:02.000160,15.49743989,.00014806,97.2853,205.0289,50.2550,117.5704,0,U,69342,999,448,-.17731169E-1,-.893787E-2,0
STARLINK-37776,2026-122Q,2026-06-24T06:00:02.000160,15.49130233,.00007833,97.2852,205.0198,104.7372,45.9145,0,U,69343,999,448,-.18489969E-3,-.10113E-3,0
STARLINK-37786,2026-122R,2026-06-24T06:00:02.000160,15.49188109,.00009408,97.2851,204.9462,88.4597,246.9920,0,U,69344,999,448,-.31472302E-3,-.17169E-3,0
STARLINK-37785,2026-122S,2026-06-24T06:00:02.000160,15.49538038,.00009421,97.2852,205.0238,60.6515,100.0635,0,U,69345,999,448,-.11127982E-1,-.570357E-2,0
STARLINK-37773,2026-122T,2026-06-24T06:00:02.000160,15.49182693,.00015975,97.2852,204.9747,114.7706,293.0106,0,U,69346,999,453,-.19364115E-3,-.10606E-3,0
STARLINK-37744,2026-122U,2026-06-24T06:00:02.000160,15.49191250,.00005884,97.2852,204.8658,100.4759,47.7791,0,U,69347,999,448,-.49561505E-3,-.26955E-3,0
STARLINK-37775,2026-122V,2026-06-24T06:00:02.000160,15.49178450,.00014738,97.2851,204.9788,102.7194,307.0744,0,U,69348,999,448,.13210799E-3,.7098E-4,0
STARLINK-37777,2026-122W,2026-06-24T06:00:02.000160,15.49187266,.00009616,97.2849,204.9804,88.8497,326.4372,0,U,69349,999,448,-.13821938E-3,-.76E-4,0
STARLINK-37779,2026-122X,2026-06-24T06:00:02.000160,15.49164681,.00012994,97.2851,205.0160,76.8719,62.6569,0,U,69350,999,448,-.56659316E-4,-.3168E-4,0
STARLINK-37549,2026-122Y,2026-06-24T06:00:02.000160,15.49236166,.00019482,97.2915,204.9204,86.1408,189.0930,0,U,69351,999,448,-.70846433E-3,-.385E-3,0
STARLINK-37778,2026-122Z,2026-06-24T06:00:02.000160,15.49188607,.00009601,97.2855,204.9391,93.9583,225.7194,0,U,69352,999,448,-.40358818E-3,-.21978E-3,0
STARLINK-37651,2026-123A,2026-06-24T04:32:50.313408,15.80938260,.00011585,53.1570,206.7138,94.3049,265.8106,0,U,69353,999,314,.99625654E-3,.201182E-2,0
STARLINK-37652,2026-123B,2026-06-24T06:05:30.789312,15.80949968,.00010684,53.1570,206.4051,111.2529,248.8608,0,U,69354,999,315,.10073966E-2,.203607E-2,0
STARLINK-37593,2026-123C,2026-06-24T06:04:15.559968,15.80954973,.00012256,53.1568,206.3986,113.4225,246.6927,0,U,69355,999,315,.10304345E-2,.208446E-2,0
STARLINK-37597,2026-123D,2026-06-23T11:49:54.753312,15.79483202,.00008709,53.1573,210.1918,36.4869,323.6212,0,U,69356,999,303,-.2958845E-2,-.516929E-2,0
STARLINK-37598,2026-123E,2026-06-24T05:58:53.646528,15.80932653,.00011286,53.1573,206.3731,108.9634,251.1511,0,U,69357,999,315,.80813278E-3,.162278E-2,0
STARLINK-37602,2026-123F,2026-06-24T05:12:16.228800,15.75261138,.00012727,53.1589,206.8965,88.1633,271.9533,0,U,69358,999,314,.80728431E-3,.125073E-2,0
STARLINK-37600,2026-123G,2026-06-24T06:37:33.651552,15.75270221,.00011227,53.1582,206.5528,102.3439,257.7707,0,U,69359,999,315,.78128368E-3,.121013E-2,0
STARLINK-37599,2026-123H,2026-06-24T07:14:58.483392,15.81036331,.00007724,53.1568,205.9863,91.4207,268.6905,0,U,69360,999,316,.14402267E-2,.295731E-2,0
STARLINK-37039,2026-123J,2026-06-24T06:00:02.000160,15.75317025,.00010061,53.1595,206.4138,100.5265,242.3011,0,U,69361,999,429,-.12441146E-2,-.187812E-2,0
STARLINK-37040,2026-123K,2026-06-24T03:52:13.941408,15.80935715,.00011071,53.1575,206.5226,97.4087,262.7062,0,U,69362,999,314,.9731726E-3,.19637E-2,0
